NORAD_CAT_ID,OBJECT_NAME,OBJECT_TYPE,EPOCH,MEAN_MOTION,ECCENTRICITY,INCLINATION,RA_OF_ASC_NODE,ARG_OF_PERICENTER,MEAN_ANOMALY,BSTAR,MEAN_MOTION_DOT,MEAN_MOTION_DDOT,TLE_LINE0,TLE_LINE1,TLE_LINE2,SEMIMAJOR_AXIS,PERIOD,APOGEE,PERIGEE,DECAYED
51736.0,STARLINK-3447,PAYLOAD,2022-05-15 22:00:00,15.11329276,0.0002044,53.2174,96.024,36.3902,115.359,-0.045474,-0.00721609,0.0,0 STARLINK-3447,1 51736U 22016Y   22135.91667824 -.00721609  00000-0 -45474-1 0  9991,2 51736  53.2174  96.0240 0002044  36.3902 115.3590 15.11329276  1305,6910.281999999997,95.28,533.56,530.735,0.0
51736.0,STARLINK-3447,PAYLOAD,2022-05-16 14:00:01,15.10310013,0.0001773,53.2173,93.0191,46.3893,133.3014,-0.046887,-0.00723091,0.0,0 STARLINK-3447,1 51736U 22016Y   22136.58334491 -.00723091  00000-0 -46887-1 0  9992,2 51736  53.2173  93.0191 0001773  46.3893 133.3014 15.10310013  1303,6913.391,95.345,536.482,534.03,0.0
51736.0,STARLINK-3447,PAYLOAD,2022-05-16 22:00:00,15.09799413,0.0001833,53.2175,91.5179,46.5732,146.1695,-0.04746,-0.00721752,0.0,0 STARLINK-3447,1 51736U 22016Y   22136.91667824 -.00721752  00000-0 -47460-1 0  9998,2 51736  53.2175  91.5179 0001833  46.5732 146.1695 15.09799413 14433,6914.949000000001,95.377,538.082,535.547,0.0
51736.0,STARLINK-3447,PAYLOAD,2022-05-17 12:00:00,15.08842796,0.0001737,53.2171,88.8966,44.7711,79.34100000000002,-0.00064311,-0.00010509,0.0,0 STARLINK-3447,1 51736U 22016Y   22137.50001157 -.00010509  00000-0 -64311-3 0  9992,2 51736  53.2171  88.8966 0001737  44.7711  79.3410 15.08842796 14526,6917.871999999999,95.437,540.938,538.535,0.0
51736.0,STARLINK-3447,PAYLOAD,2022-05-17 14:00:01,15.08838092,0.0001753,53.2174,88.5217,46.7435,170.332,-0.00013252,-2.396e-05,0.0,0 STARLINK-3447,1 51736U 22016Y   22137.58335648 -.00002396  00000-0 -13252-3 0  9998,2 51736  53.2174  88.5217 0001753  46.7435 170.3320 15.08838092  1306,6917.886,95.438,540.964,538.539,0.0
51736.0,STARLINK-3447,PAYLOAD,2022-05-17 22:00:01,15.08830758,0.0001478,53.2131,87.0311,34.5754,194.1116,-0.00042295,-7.011e-05,0.0,0 STARLINK-3447,1 51736U 22016Y   22137.91668981 -.00007011  00000-0 -42295-3 0  9992,2 51736  53.2131  87.0311 0001478  34.5754 194.1116 15.08830758  1309,6917.909000000002,95.438,540.7959999999998,538.751,0.0
51736.0,STARLINK-3447,PAYLOAD,2022-05-18 06:00:00,15.08844276,0.0001681,53.2116,85.5393,30.8032,209.4384,0.0011842,0.00018611,0.0,0 STARLINK-3447,1 51736U 22016Y   22138.25001157  .00018611  00000-0  11842-2 0  9995,2 51736  53.2116  85.5393 0001681  30.8032 209.4384 15.08844276 14636,6917.8669999999975,95.437,540.895,538.569,0.0
51736.0,STARLINK-3447,PAYLOAD,2022-05-18 14:00:01,15.0884937,0.0001553,53.2116,84.0412,35.7843,216.0716,-0.000969,-0.00015681,0.0,0 STARLINK-3447,1 51736U 22016Y   22138.58334491 -.00015681  00000-0 -96900-3 0  9996,2 51736  53.2116  84.0412 0001553  35.7843 216.0716 15.08849370  1307,6917.852,95.437,540.7909999999998,538.6419999999998,0.0
51736.0,STARLINK-3447,PAYLOAD,2022-05-18 20:00:01,15.08844535,0.0001533,53.2119,82.9185,43.2733,127.2812,-0.00052658,-8.66e-05,0.0,0 STARLINK-3447,1 51736U 22016Y   22138.83334491 -.00008660  00000-0 -52658-3 0  9995,2 51736  53.2119  82.9185 0001533  43.2733 127.2812 15.08844535 14722,6917.8669999999975,95.437,540.7919999999998,538.6709999999998,0.0
51736.0,STARLINK-3447,PAYLOAD,2022-05-18 22:00:00,15.0884772,0.0001565999999999,53.2119,82.5448,42.8901,220.563,-0.0011407,-0.000184,0.0,0 STARLINK-3447,1 51736U 22016Y   22138.91667824 -.00018400  00000-0 -11407-2 0  9992,2 51736  53.2119  82.5448 0001566  42.8901 220.5630 15.08847720  1302,6917.857,95.437,540.805,538.638,0.0
51736.0,STARLINK-3447,PAYLOAD,2022-05-19 14:00:01,15.088900699999998,0.0001541999999999,53.2155,79.5468,38.4479,248.2445,-0.0034111,-0.00054241,0.0,0 STARLINK-3447,1 51736U 22016Y   22139.58335648 -.00054241  00000-0 -34111-2 0  9992,2 51736  53.2155  79.5468 0001542  38.4479 248.2445 15.08890070  1302,6917.727,95.434,540.659,538.526,0.0
51736.0,STARLINK-3447,PAYLOAD,2022-05-19 22:00:00,15.08887239,0.0001615,53.2135,78.0556,47.476000000000006,250.7623,-0.0031033,-0.00049402,0.0,0 STARLINK-3447,1 51736U 22016Y   22139.91667824 -.00049402  00000-0 -31033-2 0  9996,2 51736  53.2135  78.0556 0001615  47.4760 250.7623 15.08887239 14882,6917.736,95.435,540.7180000000002,538.484,0.0
51736.0,STARLINK-3447,PAYLOAD,2022-05-20 14:00:01,15.08847015,0.0001608,53.2129,75.0624,47.0917,274.395,-0.00045706,-7.556e-05,0.0,0 STARLINK-3447,1 51736U 22016Y   22140.58334491 -.00007556  00000-0 -45706-3 0  9999,2 51736  53.2129  75.0624 0001608  47.0917 274.3950 15.08847015 14984,6917.859,95.437,540.836,538.612,0.0
51736.0,STARLINK-3447,PAYLOAD,2022-05-20 22:00:00,15.08850001,0.0001623,53.2129,73.5662,50.833,282.2529,-0.00030135,-5.082e-05,0.0,0 STARLINK-3447,1 51736U 22016Y   22140.91667824 -.00005082  00000-0 -30135-3 0  9997,2 51736  53.2129  73.5662 0001623  50.8330 282.2529 15.08850001  1308,6917.85,95.437,540.8380000000002,538.592,0.0
51736.0,STARLINK-3447,PAYLOAD,2022-05-21 06:00:00,15.08827264,0.0001769,53.2126,72.0711,44.4641,300.2199,0.0012082,0.00018986,0.0,0 STARLINK-3447,1 51736U 22016Y   22141.25001157  .00018986  00000-0  12082-2 0  9991,2 51736  53.2126  72.0711 0001769  44.4641 300.2199 15.08827264  1308,6917.919,95.438,541.008,538.561,0.0
51736.0,STARLINK-3447,PAYLOAD,2022-05-21 14:00:01,15.08837514,0.0001595999999999,53.2124,70.5727,49.1762,307.1651,0.0003695,5.597e-05,0.0,0 STARLINK-3447,1 51736U 22016Y   22141.58335648  .00005597  00000-0  36950-3 0  9997,2 51736  53.2124  70.5727 0001596  49.1762 307.1651 15.08837514 15134,6917.888000000001,95.438,540.857,538.649,0.0
51736.0,STARLINK-3447,PAYLOAD,2022-05-21 22:00:00,15.0885516,0.0001482,53.2125,69.0768,45.2144,322.6536,-0.0032177,-0.00051155,0.0,0 STARLINK-3447,1 51736U 22016Y   22141.91667824 -.00051155  00000-0 -32177-2 0  9997,2 51736  53.2125  69.0768 0001482  45.2144 322.6536 15.08855160  1303,6917.834,95.437,540.724,538.674,0.0
51736.0,STARLINK-3447,PAYLOAD,2022-05-22 06:00:00,15.08799755,0.0001609,53.2122,67.5814,38.1025,341.3623,0.0028942,0.00046024,0.0,0 STARLINK-3447,1 51736U 22016Y   22142.25001157  .00046024  00000-0  28942-2 0  9998,2 51736  53.2122  67.5814 0001609  38.1025 341.3623 15.08799755 15245,6918.003000000002,95.44,540.982,538.755,0.0
51736.0,STARLINK-3447,PAYLOAD,2022-05-22 14:00:01,15.08796645,0.0001494,53.2123,66.083,45.0838,345.9552,0.001692,0.00026711,0.0,0 STARLINK-3447,1 51736U 22016Y   22142.58334491  .00026711  00000-0  16920-2 0  9998,2 51736  53.2123  66.0830 0001494  45.0838 345.9552 15.08796645 15290,6918.013000000001,95.44,540.911,538.844,0.0
51736.0,STARLINK-3447,PAYLOAD,2022-05-22 22:00:01,15.08836645,0.000161,53.2125,64.5871,47.1029,355.5516,-0.00035036,-5.859e-05,0.0,0 STARLINK-3447,1 51736U 22016Y   22142.91668981 -.00005859  00000-0 -35036-3 0  9991,2 51736  53.2125  64.5871 0001610  47.1029 355.5516 15.08836645  1304,6917.891,95.438,540.869,538.6419999999998,0.0
51736.0,STARLINK-3447,PAYLOAD,2022-05-23 14:00:01,15.08843706,0.0001689,53.2126,61.5932,49.1667,16.6169,-0.0015007,-0.00024095,0.0,0 STARLINK-3447,1 51736U 22016Y   22143.58334491 -.00024095  00000-0 -15007-2 0  9999,2 51736  53.2126  61.5932 0001689  49.1667  16.6169 15.08843706  1301,6917.869000000002,95.437,540.9019999999998,538.566,0.0
51736.0,STARLINK-3447,PAYLOAD,2022-05-23 16:00:00,15.08829879,0.0001715,53.2125,61.2188,51.2838,107.4031,-0.00028899,-4.883e-05,0.0,0 STARLINK-3447,1 51736U 22016Y   22143.66667824 -.00004883  00000-0 -28899-3 0  9994,2 51736  53.2125  61.2188 0001715  51.2838 107.4031 15.08829879 15457,6917.911,95.438,540.9630000000002,538.59,0.0
51736.0,STARLINK-3447,PAYLOAD,2022-05-23 22:00:01,15.08837072,0.0001889,53.2129,60.0974,52.9264,24.5077,-0.00099321,-0.00016059,0.0,0 STARLINK-3447,1 51736U 22016Y   22143.91668981 -.00016059  00000-0 -99321-3 0  9993,2 51736  53.2129  60.0974 0001889  52.9264  24.5077 15.08837072  1306,6917.889,95.438,541.061,538.448,0.0
51736.0,STARLINK-3447,PAYLOAD,2022-05-24 14:00:01,15.08839141,0.0001779,53.2132,57.1035,52.3583,48.187,0.00045641,6.983e-05,0.0,0 STARLINK-3447,1 51736U 22016Y   22144.58334491  .00006983  00000-0  45641-3 0  9992,2 51736  53.2132  57.1035 0001779  52.3583  48.1870 15.08839141 15599,6917.8830000000025,95.438,540.979,538.5169999999998,0.0
51736.0,STARLINK-3447,PAYLOAD,2022-05-24 22:00:00,15.08858227,0.00018,53.2135,55.6079,50.199,61.9391,-0.003804,-0.00060353,0.0,0 STARLINK-3447,1 51736U 22016Y   22144.91667824 -.00060353  00000-0 -38040-2 0  9995,2 51736  53.2135  55.6079 0001800  50.1990  61.9391 15.08858227  1307,6917.825,95.436,540.935,538.444,0.0
51736.0,STARLINK-3447,PAYLOAD,2022-05-25 06:00:00,15.08805251,0.0001872,53.2134,54.1123,44.06100000000001,79.6649,0.002929,0.00046591,0.0,0 STARLINK-3447,1 51736U 22016Y   22145.25001157  .00046591  00000-0  29290-2 0  9997,2 51736  53.2134  54.1123 0001872  44.0610  79.6649 15.08805251 15698,6917.986999999999,95.44,541.1469999999998,538.557,0.0
51736.0,STARLINK-3447,PAYLOAD,2022-05-25 14:00:01,15.08812777,0.0001675,53.2137,52.6141,49.9462,85.3637,0.0034954,0.0005574,0.0,0 STARLINK-3447,1 51736U 22016Y   22145.58334491  .00055740  00000-0  34954-2 0  9992,2 51736  53.2137  52.6141 0001675  49.9462  85.3637 15.08812777  1309,6917.964,95.439,540.987,538.67,0.0
51736.0,STARLINK-3447,PAYLOAD,2022-05-25 21:21:07,15.08835255,0.0001646,53.2148,51.2394,55.7304,304.3844,-3.4135e-05,-8.31e-06,0.0,0 STARLINK-3447,1 51736U 22016Y   22145.88966897 -.00000831  00000-0 -34135-4 0  9992,2 51736  53.2148  51.2394 0001646  55.7304 304.3844 15.08835255 14656,6917.895,95.438,540.899,538.621,0.0
51736.0,STARLINK-3447,PAYLOAD,2022-05-25 22:00:00,15.08874876,0.0001768,53.214,51.1186,48.8123,98.0813,-0.003628,-0.00057622,0.0,0 STARLINK-3447,1 51736U 22016Y   22145.91667824 -.00057622  00000-0 -36280-2 0  9995,2 51736  53.2140  51.1186 0001768  48.8123  98.0813 15.08874876 15794,6917.774,95.435,540.862,538.4159999999998,0.0
